TISAT 1                 
1 36799U 10035E   26068.75703561  .00024554  00000+0  91005-3 0  9996
2 36799  98.0645   6.8512 0001343 159.3030 200.8262 15.27628633852505
STARLINK-33685          
1 63465U 25070F   26068.55158695  .00038134  00000+0  13874-2 0  9997
2 63465  42.9934 260.7201 0001141 246.9043 113.1688 15.27597367 52951
